[{"OBJECT_NAME":"STARLINK-33730","OBJECT_ID":"2025-069G","EPOCH":"2026-03-09T12:39:48.568608","MEAN_MOTION":15.30202885,"ECCENTRICITY":9.007e-5,"INCLINATION":53.1607,"RA_OF_ASC_NODE":142.9653,"ARG_OF_PERICENTER":146.1585,"MEAN_ANOMALY":213.9474,"EPHEMERIS_TYPE":0,"CLASSIFICATION_TYPE":"U","NORAD_CAT_ID":63439,"ELEMENT_SET_NO":999,"REV_AT_EPOCH":5338,"BSTAR":0.0010922317,"MEAN_MOTION_DOT":0.00032132,"MEAN_MOTION_DDOT":0},{"OBJECT_NAME":"239ALFEROV (RS61S)","OBJECT_ID":"2025-155F","EPOCH":"2026-03-09T21:46:33.382848","MEAN_MOTION":15.29933217,"ECCENTRICITY":0.00084878,"INCLINATION":97.4469,"RA_OF_ASC_NODE":37.6373,"ARG_OF_PERICENTER":151.5904,"MEAN_ANOMALY":208.58,"EPHEMERIS_TYPE":0,"CLASSIFICATION_TYPE":"U","NORAD_CAT_ID":64881,"ELEMENT_SET_NO":999,"REV_AT_EPOCH":6561,"BSTAR":0.00067233359,"MEAN_MOTION_DOT":0.00019457,"MEAN_MOTION_DDOT":0}]
